[{"OBJECT_NAME":"FORMOSAT 7-3","OBJECT_ID":"2019-036E","EPOCH":"2026-03-09T19:49:52.754592","MEAN_MOTION":15.08933962,"ECCENTRICITY":0.00010606,"INCLINATION":23.9981,"RA_OF_ASC_NODE":141.9797,"ARG_OF_PERICENTER":150.4425,"MEAN_ANOMALY":209.6139,"EPHEMERIS_TYPE":0,"CLASSIFICATION_TYPE":"U","NORAD_CAT_ID":44343,"ELEMENT_SET_NO":999,"REV_AT_EPOCH":36821,"BSTAR":0.00037650049,"MEAN_MOTION_DOT":6.445e-5,"MEAN_MOTION_DDOT":0},{"OBJECT_NAME":"YAM-8","OBJECT_ID":"2025-052AW","EPOCH":"2026-03-09T17:32:32.161056","MEAN_MOTION":15.10898939,"ECCENTRICITY":0.00023693,"INCLINATION":97.7023,"RA_OF_ASC_NODE":329.5345,"ARG_OF_PERICENTER":152.6796,"MEAN_ANOMALY":207.4558,"EPHEMERIS_TYPE":0,"CLASSIFICATION_TYPE":"U","NORAD_CAT_ID":63254,"ELEMENT_SET_NO":999,"REV_AT_EPOCH":5424,"BSTAR":0.00047267461,"MEAN_MOTION_DOT":7.81e-5,"MEAN_MOTION_DDOT":0}]
